1 45668U 20035M   23282.12059388  .00020037  00000-0  13599-2 0  9993
2 45668  53.0545  68.6261 0001890  86.6518 273.4687 15.06408963185300
1 45668U 20035M   23282.58502034  .00019785  00000-0  13432-2 0  9998
2 45668  53.0545  66.5415 0001196  86.1707 273.9418 15.06405476185787
1 45668U 20035M   23282.78405982  .00011814  00000-0  81043-3 0  9993
2 45668  53.0551  65.6473 0001679  82.0616 278.0564 15.06412291185813
1 45668U 20035M   23282.78405982  .00011814  00000-0  81043-3 0  9993
2 45668  53.0551  65.6473 0001679  82.0616 278.0564 15.06412291185408
1 45668U 20035M   23283.58022762  .00007807  00000-0  54242-3 0  9991
2 45668  53.0548  62.0718 0001464  95.6463 264.4693 15.06399200185933
1 45668U 20035M   23283.64657382  .00008710  00000-0  60285-3 0  9998
2 45668  53.0548  61.7744 0001425 103.0070 257.1078 15.06401529185948
1 45668U 20035M   23283.64657382  .00008710  00000-0  60285-3 0  9998
2 45668  53.0548  61.7744 0001425 103.0070 257.1078 15.06401529185533
1 45668U 20035M   23284.11099708  .00022636  00000-0  15326-2 0  9991
2 45668  53.0550  59.6910 0001393  97.7379 262.3769 15.06424882185602
1 45668U 20035M   23284.64177333  .00024165  00000-0  16348-2 0  9994
2 45668  53.0562  57.3083 0002476  92.5528 267.5744 15.06418110186094
1 45668U 20035M   23284.70812093  .00020513  00000-0  13919-2 0  9994
2 45668  53.0556  57.0135 0001629  76.1230 283.9940 15.06402090185694
1 45668U 20035M   23285.10620860  .00014358  00000-0  98111-3 0  9996
2 45668  53.0573  55.2239 0001932  85.7251 274.3959 15.06389226185750
1 45668U 20035M   23285.63698959  .00008693  00000-0  60198-3 0  9997
2 45668  53.0570  52.8416 0001654  92.3973 267.7206 15.06384943186240
1 45668U 20035M   23285.63698959  .00008693  00000-0  60198-3 0  9997
2 45668  53.0570  52.8416 0001654  92.3973 267.7206 15.06384943185834
1 45668U 20035M   23286.49949438  .00026376  00000-0  17816-2 0  9999
2 45668  53.0551  48.9699 0001540  86.6040 273.5125 15.06428694185968
1 45668U 20035M   23286.56583960  .00030691  00000-0  20684-2 0  9993
2 45668  53.0553  48.6722 0001528  84.1867 275.9296 15.06435138186383
1 45668U 20035M   23286.63218425  .00033844  00000-0  22775-2 0  9998
2 45668  53.0555  48.3743 0001527  83.2151 276.9012 15.06442339186399
1 45668U 20035M   23286.63218425  .00033844  00000-0  22775-2 0  9998
2 45668  53.0555  48.3743 0001527  83.2151 276.9012 15.06442339185983
1 45668U 20035M   23287.36200142  .00018226  00000-0  12390-2 0  9995
2 45668  53.0566  45.0963 0001609 103.3308 256.7860 15.06409910186090
1 45668U 20035M   23287.56104214  .00016404  00000-0  11175-2 0  9996
2 45668  53.0570  44.2037 0001500 106.0876 254.0278 15.06404009186535
1 45668U 20035M   23287.76008100  .00009035  00000-0  62449-3 0  9998
2 45668  53.0566  43.3089 0001611 108.4043 251.7121 15.06409121186566
1 45668U 20035M   23287.76008100  .00009035  00000-0  62449-3 0  9998
2 45668  53.0566  43.3089 0001611 108.4043 251.7121 15.06409121186151
1 45668U 20035M   23288.48990018  .00002890  00000-0  21285-3 0  9991
2 45668  53.0559  40.0328 0001785 111.1769 248.9410 15.06397152186262
1 45668U 20035M   23288.55624603  .00001500  00000-0  11959-3 0  9997
2 45668  53.0562  39.7355 0001704 102.1101 258.0079 15.06399811186685
1 45668U 20035M   23288.62259269  .00003232  00000-0  23577-3 0  9990
2 45668  53.0568  39.4387 0001616  92.3130 267.8044 15.06403356186698
1 45668U 20035M   23289.35241901  .00000725  00000-0  67614-4 0  9990
2 45668  53.0573  36.1651 0001685  96.3260 263.7921 15.06386595186397
1 45668U 20035M   23289.61780447  .00002409  00000-0  18056-3 0  9998
2 45668  53.0565  34.9718 0001594 102.4887 257.6280 15.06395212186847
1 45668U 20035M   23289.61780447  .00002409  00000-0  18056-3 0  9998
2 45668  53.0565  34.9718 0001594 102.4887 257.6280 15.06395212186432
1 45668U 20035M   23290.54665356  .00005883  00000-0  41338-3 0  9991
2 45668  53.0560  30.8041 0001290  85.3543 274.7594 15.06410047186984
1 45668U 20035M   23290.54665356  .00005883  00000-0  41338-3 0  9991
2 45668  53.0560  30.8041 0001290  85.3543 274.7594 15.06410047186579
1 45668U 20035M   23291.01107751  .00006231  00000-0  43667-3 0  9999
2 45668  53.0566  28.7161 0001377 108.9758 251.1381 15.06415048187053
1 45668U 20035M   23291.54186769 -.00000089  00000-0  12950-4 0  9991
2 45668  53.0561  26.3334 0001520 105.3743 254.7414 15.06389917186723
1 45668U 20035M   23291.67455660  .00002132  00000-0  16200-3 0  9995
2 45668  53.0555  25.7378 0001593 109.0126 251.1035 15.06399203187150
1 45668U 20035M   23291.67455660  .00002132  00000-0  16200-3 0  9995
2 45668  53.0555  25.7378 0001593 109.0126 251.1035 15.06399203186744
1 45668U 20035M   23292.47068880  .00010892  00000-0  74811-3 0  9992
2 45668  53.0568  22.1646 0002378 126.5995 233.5213 15.06444446186862
1 45668U 20035M   23293.46591206 -.00007470  00000-0 -48341-3 0  9994
2 45668  53.0559  17.6965 0001457  92.1289 267.9867 15.06377384187421
1 45668U 20035M   23293.46591206 -.00007470  00000-0 -48341-3 0  9994
2 45668  53.0559  17.6965 0001457  92.1289 267.9867 15.06377384187016
1 45668U 20035M   23294.52745513  .00002076  00000-0  15824-3 0  9999
2 45668  53.0573  12.9388 0001787 101.8256 258.2934 15.06405872187176
1 45668U 20035M   23294.92555094 -.00000726  00000-0 -29847-4 0  9999
2 45668  53.0561  11.1444 0002165  89.7315 270.3922 15.06382074187640
1 45668U 20035M   23294.92555094 -.00000726  00000-0 -29847-4 0  9999
2 45668  53.0561  11.1444 0002165  89.7315 270.3922 15.06382074187235
1 45668U 20035M   23295.52268650 -.00000786  00000-0 -33895-4 0  9999
2 45668  53.0563   8.4626 0001742  80.0764 280.0421 15.06371629187326
1 45668U 20035M   23295.92076352  .00002226  00000-0  16835-3 0  9992
2 45668  53.0569   6.6760 0001520  73.7467 286.3689 15.06388329187795
1 45668U 20035M   23295.92076352  .00002226  00000-0  16835-3 0  9992
2 45668  53.0569   6.6760 0001520  73.7467 286.3689 15.06388329187380
1 45668U 20035M   23296.51787587  .00007232  00000-0  50370-3 0  9991
2 45668  53.0559   3.9979 0001423  79.3831 280.7318 15.06414460187473
1 45668U 20035M   23296.91596369  .00002748  00000-0  20334-3 0  9995
2 45668  53.0573   2.2093 0001511  83.8665 276.2496 15.06399121187946
1 45668U 20035M   23296.91596369  .00002748  00000-0  20334-3 0  9995
2 45668  53.0573   2.2093 0001511  83.8665 276.2496 15.06399121187531
1 45668U 20035M   23297.44674802  .00001901  00000-0  14654-3 0  9991
2 45668  53.0573 359.8238 0001809  88.3041 271.8155 15.06388293188027
1 45668U 20035M   23297.44674802  .00001901  00000-0  14654-3 0  9991
2 45668  53.0573 359.8238 0001809  88.3041 271.8155 15.06388293187611
1 45668U 20035M   23298.44193358  .00007114  00000-0  49571-3 0  9992
2 45668  53.0557 355.3595 0001555  94.5746 265.5420 15.06423243188171
1 45668U 20035M   23298.44193358  .00007114  00000-0  49571-3 0  9992
2 45668  53.0557 355.3595 0001555  94.5746 265.5420 15.06423243187765
1 45668U 20035M   23299.17175358  .00005250  00000-0  37099-3 0  9994
2 45668  53.0556 352.0834 0001563 105.6707 254.4454 15.06410276187872
1 45668U 20035M   23299.43713996  .00004948  00000-0  35079-3 0  9998
2 45668  53.0560 350.8930 0001416 103.6078 256.5069 15.06406159188327
1 45668U 20035M   23299.83521735  .00014597  00000-0  99630-3 0  9994
2 45668  53.0560 349.1062 0001353 104.0102 256.1037 15.06418641188383
1 45668U 20035M   23300.43232486  .00018361  00000-0  12469-2 0  9992
2 45668  53.0555 346.4244 0001298  98.6144 261.4992 15.06442985188063
1 45668U 20035M   23300.56501461  .00015444  00000-0  10522-2 0  9995
2 45668  53.0554 345.8290 0001294  98.4419 261.6717 15.06444424188499
1 45668U 20035M   23300.83040434  .00002675  00000-0  19833-3 0  9990
2 45668  53.0557 344.6334 0001712  83.7648 276.3536 15.06419701188531
1 45668U 20035M   23300.83040434  .00002675  00000-0  19833-3 0  9990
2 45668  53.0557 344.6334 0001712  83.7648 276.3536 15.06419701188126
1 45668U 20035M   23301.49388249  .00000159  00000-0  29564-4 0  9990
2 45668  53.0545 341.6593 0001361  81.3689 278.7454 15.06386853188223
1 45668U 20035M   23301.82562274  .00011469  00000-0  78788-3 0  9996
2 45668  53.0542 340.1697 0001424  79.7833 280.3316 15.06386584188688
1 45668U 20035M   23302.48909495  .00015324  00000-0  10454-2 0  9998
2 45668  53.0541 337.1917 0001437  78.9508 281.1643 15.06401408188788
1 45668U 20035M   23302.82083149  .00005847  00000-0  41114-3 0  9992
2 45668  53.0543 335.7007 0001531  85.2515 274.8649 15.06394151188420
1 45668U 20035M   23303.81603745  .00005858  00000-0  41179-3 0  9995
2 45668  53.0546 331.2347 0001583  85.2464 274.8706 15.06401846188986
1 45668U 20035M   23304.21411484  .00008188  00000-0  56781-3 0  9991
2 45668  53.0540 329.4475 0001599  79.5503 280.5666 15.06409977188632
1 45668U 20035M   23304.47949831  .00008017  00000-0  55628-3 0  9991
2 45668  53.0536 328.2551 0001446  86.6523 273.4632 15.06414756189086
1 45668U 20035M   23305.20931769  .00002113  00000-0  16070-3 0  9993
2 45668  53.0537 324.9788 0001419  80.2919 279.8230 15.06401821188780
1 45668U 20035M   23305.34201035  .00002050  00000-0  15648-3 0  9994
2 45668  53.0538 324.3834 0001360  88.4155 271.6989 15.06402010189215
1 45668U 20035M   23306.33720957  .00008425  00000-0  58360-3 0  9993
2 45668  53.0542 319.9160 0001392  91.6668 268.4481 15.06412099189367
1 45668U 20035M   23306.33720957  .00008425  00000-0  58360-3 0  9993
2 45668  53.0542 319.9160 0001392  91.6668 268.4481 15.06412099188951
1 45668U 20035M   23306.73529053  .00005250  00000-0  37103-3 0  9996
2 45668  53.0530 318.1257 0001246  81.2797 278.8333 15.06404674189426
1 45668U 20035M   23306.73529053  .00005250  00000-0  37103-3 0  9996
2 45668  53.0530 318.1257 0001246  81.2797 278.8333 15.06404674189011
1 45668U 20035M   23307.19972281 -.00000745  00000-0 -31145-4 0  9999
2 45668  53.0546 316.0478 0001526 102.8924 257.2236 15.06394696189085
1 45668U 20035M   23307.39876449 -.00000299  00000-0 -11621-5 0  9992
2 45668  53.0542 315.1517 0001532  97.2180 262.8983 15.06394245189523
